ONEWEB-0225             
1 48799U 21045AJ  25267.61849802 -.00000106  00000+0 -31528-3 0  9999
2 48799  87.9009 312.2026 0001293 107.9992 252.1279 13.15549905209506
ONEWEB-0215             
1 48800U 21045AK  25267.13206268  .00000117  00000+0  27703-3 0  9992
2 48800  87.9022 312.2523 0001380 116.1396 243.9877 13.15548661209312
ONEWEB-0216             
1 48801U 21045AL  25267.67397702 -.00000015  00000+0 -74494-4 0  9995
2 48801  87.9007 312.1839 0001693  91.5563 268.5761 13.15549386209392
ONEWEB-0239             
1 48802U 21045AM  25267.52659307 -.00000080  00000+0 -24755-3 0  9998
2 48802  87.9010 312.2276 0001646 123.4344 236.6944 13.15549754209414
ONEWEB-0249             
1 48967U 21060A   25267.74670842  .00000090  00000+0  20263-3 0  9997
2 48967  87.8967 281.6777 0001897  94.6544 265.4804 13.16596172204686
ONEWEB-0250             
1 48968U 21060B   25267.96104584  .00000113  00000+0  22848-3 0  9994
2 48968  87.8966 280.2593 0002440 114.3218 245.8173 13.25813998205073
ONEWEB-0252             
1 48970U 21060D   25267.55037321 -.00000191  00000+0 -53331-3 0  9995
2 48970  87.8967 281.7102 0001816  81.4931 278.6405 13.16594453204704
ONEWEB-0253             
1 48971U 21060E   25267.99527396 -.00000231  00000+0 -63799-3 0  9994
2 48971  87.8966 281.6248 0001642  94.4064 265.7254 13.16593580204699
ONEWEB-0254             
1 48972U 21060F   25267.54880997  .00000013  00000+0  15300-5 0  9998
2 48972  87.8973 281.7017 0001650 104.2577 255.8738 13.16594641204631
ONEWEB-0255             
1 48973U 21060G   25267.96677956  .00000094  00000+0  21096-3 0  9990
2 48973  87.8960 281.6430 0001702  98.1148 262.0177 13.16593382204761
ONEWEB-0256             
1 48974U 21060H   25267.53691768 -.00000218  00000+0 -60309-3 0  9991
2 48974  87.8963 281.7395 0001901  87.5348 272.6000 13.16594087204676
ONEWEB-0257             
1 48975U 21060J   25267.56938259  .00000060  00000+0  12309-3 0  9994
2 48975  87.8970 281.7035 0001638  92.8601 267.2718 13.16595552204634
ONEWEB-0258             
1 48976U 21060K   25267.57096500  .00000078  00000+0  16966-3 0  9992
2 48976  87.8961 281.7255 0001918  93.6059 266.5291 13.16592495204648
ONEWEB-0259             
1 48977U 21060L   25267.56463280  .00000077  00000+0  16698-3 0  9996
2 48977  87.8965 281.7134 0001768  96.7621 263.3711 13.16595710204679
ONEWEB-0260             
1 48978U 21060M   25267.55591529  .00000068  00000+0  14481-3 0  9992
2 48978  87.8959 281.7373 0001734  75.8213 284.3111 13.16595487204652
ONEWEB-0261             
1 48979U 21060N   25267.75384674  .00000007  00000+0 -15076-4 0  9992
2 48979  87.8960 281.6994 0001425  93.0963 267.0331 13.16594518204739
