[{"OBJECT_NAME":"ONEWEB-0225","OBJECT_ID":"2021-045AJ","EPOCH":"2025-09-24T14:50:38.228928","MEAN_MOTION":13.15549905,"ECCENTRICITY":0.00012939,"INCLINATION":87.9009,"RA_OF_ASC_NODE":312.2026,"ARG_OF_PERICENTER":107.9992,"MEAN_ANOMALY":252.1279,"EPHEMERIS_TYPE":0,"CLASSIFICATION_TYPE":"U","NORAD_CAT_ID":48799,"ELEMENT_SET_NO":999,"REV_AT_EPOCH":20950,"BSTAR":-0.00031528174,"MEAN_MOTION_DOT":-1.06e-6,"MEAN_MOTION_DDOT":0},{"OBJECT_NAME":"ONEWEB-0215","OBJECT_ID":"2021-045AK","EPOCH":"2025-09-24T03:10:10.215552","MEAN_MOTION":13.15548661,"ECCENTRICITY":0.000138,"INCLINATION":87.9022,"RA_OF_ASC_NODE":312.2523,"ARG_OF_PERICENTER":116.1396,"MEAN_ANOMALY":243.9877,"EPHEMERIS_TYPE":0,"CLASSIFICATION_TYPE":"U","NORAD_CAT_ID":48800,"ELEMENT_SET_NO":999,"REV_AT_EPOCH":20931,"BSTAR":0.00027703265,"MEAN_MOTION_DOT":1.17e-6,"MEAN_MOTION_DDOT":0},{"OBJECT_NAME":"ONEWEB-0216","OBJECT_ID":"2021-045AL","EPOCH":"2025-09-24T16:10:31.614528","MEAN_MOTION":13.15549386,"ECCENTRICITY":0.00016935,"INCLINATION":87.9007,"RA_OF_ASC_NODE":312.1839,"ARG_OF_PERICENTER":91.5563,"MEAN_ANOMALY":268.5761,"EPHEMERIS_TYPE":0,"CLASSIFICATION_TYPE":"U","NORAD_CAT_ID":48801,"ELEMENT_SET_NO":999,"REV_AT_EPOCH":20939,"BSTAR":-7.4493691e-5,"MEAN_MOTION_DOT":-1.5e-7,"MEAN_MOTION_DDOT":0},{"OBJECT_NAME":"ONEWEB-0239","OBJECT_ID":"2021-045AM","EPOCH":"2025-09-24T12:38:17.641248","MEAN_MOTION":13.15549754,"ECCENTRICITY":0.0001646,"INCLINATION":87.901,"RA_OF_ASC_NODE":312.2276,"ARG_OF_PERICENTER":123.4344,"MEAN_ANOMALY":236.6944,"EPHEMERIS_TYPE":0,"CLASSIFICATION_TYPE":"U","NORAD_CAT_ID":48802,"ELEMENT_SET_NO":999,"REV_AT_EPOCH":20941,"BSTAR":-0.0002475518,"MEAN_MOTION_DOT":-8.0e-7,"MEAN_MOTION_DDOT":0},{"OBJECT_NAME":"ONEWEB-0249","OBJECT_ID":"2021-060A","EPOCH":"2025-09-24T17:55:15.607488","MEAN_MOTION":13.16596172,"ECCENTRICITY":0.00018974,"INCLINATION":87.8967,"RA_OF_ASC_NODE":281.6777,"ARG_OF_PERICENTER":94.6544,"MEAN_ANOMALY":265.4804,"EPHEMERIS_TYPE":0,"CLASSIFICATION_TYPE":"U","NORAD_CAT_ID":48967,"ELEMENT_SET_NO":999,"REV_AT_EPOCH":20468,"BSTAR":0.00020262723,"MEAN_MOTION_DOT":9.0e-7,"MEAN_MOTION_DDOT":0},{"OBJECT_NAME":"ONEWEB-0250","OBJECT_ID":"2021-060B","EPOCH":"2025-09-24T23:03:54.360576","MEAN_MOTION":13.25813998,"ECCENTRICITY":0.00024405,"INCLINATION":87.8966,"RA_OF_ASC_NODE":280.2593,"ARG_OF_PERICENTER":114.3218,"MEAN_ANOMALY":245.8173,"EPHEMERIS_TYPE":0,"CLASSIFICATION_TYPE":"U","NORAD_CAT_ID":48968,"ELEMENT_SET_NO":999,"REV_AT_EPOCH":20507,"BSTAR":0.00022848475,"MEAN_MOTION_DOT":1.13e-6,"MEAN_MOTION_DDOT":0},{"OBJECT_NAME":"ONEWEB-0252","OBJECT_ID":"2021-060D","EPOCH":"2025-09-24T13:12:32.245344","MEAN_MOTION":13.16594453,"ECCENTRICITY":0.00018163,"INCLINATION":87.8967,"RA_OF_ASC_NODE":281.7102,"ARG_OF_PERICENTER":81.4931,"MEAN_ANOMALY":278.6405,"EPHEMERIS_TYPE":0,"CLASSIFICATION_TYPE":"U","NORAD_CAT_ID":48970,"ELEMENT_SET_NO":999,"REV_AT_EPOCH":20470,"BSTAR":-0.00053330849,"MEAN_MOTION_DOT":-1.91e-6,"MEAN_MOTION_DDOT":0},{"OBJECT_NAME":"ONEWEB-0253","OBJECT_ID":"2021-060E","EPOCH":"2025-09-24T23:53:11.670144","MEAN_MOTION":13.1659358,"ECCENTRICITY":0.00016424,"INCLINATION":87.8966,"RA_OF_ASC_NODE":281.6248,"ARG_OF_PERICENTER":94.4064,"MEAN_ANOMALY":265.7254,"EPHEMERIS_TYPE":0,"CLASSIFICATION_TYPE":"U","NORAD_CAT_ID":48971,"ELEMENT_SET_NO":999,"REV_AT_EPOCH":20469,"BSTAR":-0.0006379934,"MEAN_MOTION_DOT":-2.31e-6,"MEAN_MOTION_DDOT":0},{"OBJECT_NAME":"ONEWEB-0254","OBJECT_ID":"2021-060F","EPOCH":"2025-09-24T13:10:17.181408","MEAN_MOTION":13.16594641,"ECCENTRICITY":0.000165,"INCLINATION":87.8973,"RA_OF_ASC_NODE":281.7017,"ARG_OF_PERICENTER":104.2577,"MEAN_ANOMALY":255.8738,"EPHEMERIS_TYPE":0,"CLASSIFICATION_TYPE":"U","NORAD_CAT_ID":48972,"ELEMENT_SET_NO":999,"REV_AT_EPOCH":20463,"BSTAR":1.529951e-6,"MEAN_MOTION_DOT":1.3e-7,"MEAN_MOTION_DDOT":0},{"OBJECT_NAME":"ONEWEB-0255","OBJECT_ID":"2021-060G","EPOCH":"2025-09-24T23:12:09.753984","MEAN_MOTION":13.16593382,"ECCENTRICITY":0.00017028,"INCLINATION":87.896,"RA_OF_ASC_NODE":281.643,"ARG_OF_PERICENTER":98.1148,"MEAN_ANOMALY":262.0177,"EPHEMERIS_TYPE":0,"CLASSIFICATION_TYPE":"U","NORAD_CAT_ID":48973,"ELEMENT_SET_NO":999,"REV_AT_EPOCH":20476,"BSTAR":0.00021096387,"MEAN_MOTION_DOT":9.4e-7,"MEAN_MOTION_DDOT":0},{"OBJECT_NAME":"ONEWEB-0256","OBJECT_ID":"2021-060H","EPOCH":"2025-09-24T12:53:09.687552","MEAN_MOTION":13.16594087,"ECCENTRICITY":0.00019017,"INCLINATION":87.8963,"RA_OF_ASC_NODE":281.7395,"ARG_OF_PERICENTER":87.5348,"MEAN_ANOMALY":272.6,"EPHEMERIS_TYPE":0,"CLASSIFICATION_TYPE":"U","NORAD_CAT_ID":48974,"ELEMENT_SET_NO":999,"REV_AT_EPOCH":20467,"BSTAR":-0.00060308878,"MEAN_MOTION_DOT":-2.18e-6,"MEAN_MOTION_DDOT":0},{"OBJECT_NAME":"ONEWEB-0257","OBJECT_ID":"2021-060J","EPOCH":"2025-09-24T13:39:54.655776","MEAN_MOTION":13.16595552,"ECCENTRICITY":0.00016387,"INCLINATION":87.897,"RA_OF_ASC_NODE":281.7035,"ARG_OF_PERICENTER":92.8601,"MEAN_ANOMALY":267.2718,"EPHEMERIS_TYPE":0,"CLASSIFICATION_TYPE":"U","NORAD_CAT_ID":48975,"ELEMENT_SET_NO":999,"REV_AT_EPOCH":20463,"BSTAR":0.0001230867,"MEAN_MOTION_DOT":6.0e-7,"MEAN_MOTION_DDOT":0},{"OBJECT_NAME":"ONEWEB-0258","OBJECT_ID":"2021-060K","EPOCH":"2025-09-24T13:42:11.376000","MEAN_MOTION":13.16592495,"ECCENTRICITY":0.00019188,"INCLINATION":87.8961,"RA_OF_ASC_NODE":281.7255,"ARG_OF_PERICENTER":93.6059,"MEAN_ANOMALY":266.5291,"EPHEMERIS_TYPE":0,"CLASSIFICATION_TYPE":"U","NORAD_CAT_ID":48976,"ELEMENT_SET_NO":999,"REV_AT_EPOCH":20464,"BSTAR":0.00016966185,"MEAN_MOTION_DOT":7.8e-7,"MEAN_MOTION_DDOT":0},{"OBJECT_NAME":"ONEWEB-0259","OBJECT_ID":"2021-060L","EPOCH":"2025-09-24T13:33:04.273920","MEAN_MOTION":13.1659571,"ECCENTRICITY":0.00017686,"INCLINATION":87.8965,"RA_OF_ASC_NODE":281.7134,"ARG_OF_PERICENTER":96.7621,"MEAN_ANOMALY":263.3711,"EPHEMERIS_TYPE":0,"CLASSIFICATION_TYPE":"U","NORAD_CAT_ID":48977,"ELEMENT_SET_NO":999,"REV_AT_EPOCH":20467,"BSTAR":0.00016698469,"MEAN_MOTION_DOT":7.7e-7,"MEAN_MOTION_DDOT":0},{"OBJECT_NAME":"ONEWEB-0260","OBJECT_ID":"2021-060M","EPOCH":"2025-09-24T13:20:31.081056","MEAN_MOTION":13.16595487,"ECCENTRICITY":0.00017341,"INCLINATION":87.8959,"RA_OF_ASC_NODE":281.7373,"ARG_OF_PERICENTER":75.8213,"MEAN_ANOMALY":284.3111,"EPHEMERIS_TYPE":0,"CLASSIFICATION_TYPE":"U","NORAD_CAT_ID":48978,"ELEMENT_SET_NO":999,"REV_AT_EPOCH":20465,"BSTAR":0.00014480598,"MEAN_MOTION_DOT":6.8e-7,"MEAN_MOTION_DDOT":0},{"OBJECT_NAME":"ONEWEB-0261","OBJECT_ID":"2021-060N","EPOCH":"2025-09-24T18:05:32.358336","MEAN_MOTION":13.16594518,"ECCENTRICITY":0.00014259,"INCLINATION":87.896,"RA_OF_ASC_NODE":281.6994,"ARG_OF_PERICENTER":93.0963,"MEAN_ANOMALY":267.0331,"EPHEMERIS_TYPE":0,"CLASSIFICATION_TYPE":"U","NORAD_CAT_ID":48979,"ELEMENT_SET_NO":999,"REV_AT_EPOCH":20473,"BSTAR":-1.5076247e-5,"MEAN_MOTION_DOT":7.0e-8,"MEAN_MOTION_DDOT":0}]
